*******************************************************************************
 Date__(UT)__HR:MN     Azi_(r-appr)_Elev
****************************************
$$SOE
 2016-Dec-08 05:30  s  266.4883  -0.3612
 2016-Dec-08 18:07 *r   90.6215  -0.1520

 2016-Dec-09 06:37  s  272.6220  -0.2604
 2016-Dec-09 18:42 *r   84.4435  -0.1636

 2016-Dec-10 07:47  s  278.9127  -0.2693
 2016-Dec-10 19:20 *r   78.4880  -0.0978

 2016-Dec-11 08:59  s  284.8261  -0.2825
 2016-Dec-11 20:01 *r   72.9556  -0.1774

 2016-Dec-12 10:12  s  289.8716  -0.3182
 2016-Dec-12 20:48 *r   68.5954  -0.1618

 2016-Dec-13 11:23 Ns  293.3861  -0.2625
 2016-Dec-13 21:41 Cr   65.7639  -0.1760

 2016-Dec-14 12:30 *s  295.0904  -0.2364
 2016-Dec-14 22:40 Ar   64.8330  -0.1860

 2016-Dec-15 13:31 *s  294.9187  -0.3046
 2016-Dec-15 23:44  r   65.9426  -0.1138

 2016-Dec-16 14:24 *s  292.9138  -0.3511
 2016-Dec-17 00:49  r   68.5921  -0.1780

 2016-Dec-17 15:09 *s  289.4128  -0.3237
 2016-Dec-18 01:54  r   72.5525  -0.2080

 2016-Dec-18 15:48 *s  284.9737  -0.3218
 2016-Dec-19 02:58  r   77.4448  -0.1399

 2016-Dec-19 16:22 *s  279.8984  -0.2599
 2016-Dec-20 03:59  r   82.6549  -0.1925

 2016-Dec-20 16:53 *s  274.5662  -0.2106
 2016-Dec-21 04:59  r   88.1948  -0.0920

 2016-Dec-21 17:23 *s  269.3068  -0.2780
 2016-Dec-22 05:57  r   93.6161  -0.0589

 2016-Dec-22 17:52 *s  264.1116  -0.2818
 2016-Dec-23 06:53  r   98.6591  -0.1753

 2016-Dec-23 18:21 *s  259.1217  -0.2124
 2016-Dec-24 07:50  r  103.5750  -0.0585

 2016-Dec-24 18:52 *s  254.6428  -0.2195
 2016-Dec-25 08:45  r  107.6821  -0.1819

 2016-Dec-25 19:26 *s  250.8435  -0.3008
 2016-Dec-26 09:41  r  111.2955  -0.0903

 2016-Dec-26 20:03 *s  247.7633  -0.3188
 2016-Dec-27 10:35  r  113.8166  -0.1419

 2016-Dec-27 20:44 *s  245.6316  -0.3067
 2016-Dec-28 11:28 Nr  115.3434  -0.0839

 2016-Dec-28 21:30 *s  244.7085  -0.3348
 2016-Dec-29 12:18 Cr  115.5590  -0.0679

 2016-Dec-29 22:20 Ns  244.9570  -0.2590
 2016-Dec-30 13:04 *r  114.3616  -0.1315

 2016-Dec-30 23:15 As  246.6471  -0.2797
 2016-Dec-31 13:47 *r  111.9991  -0.0944

 2017-Jan-01 00:13  s  249.5316  -0.2367
 2017-Jan-01 14:26 *r  108.4166  -0.1222

 2017-Jan-02 01:14  s  253.6070  -0.2613
 2017-Jan-02 15:02 *r  103.8680  -0.1614

 2017-Jan-03 02:17  s  258.6221  -0.3202
 2017-Jan-03 15:36 *r   98.5926  -0.1958

 2017-Jan-04 03:21  s  264.2376  -0.3226
 2017-Jan-04 16:10 *r   92.9729  -0.0815

 2017-Jan-05 04:26  s  270.1983  -0.2714
 2017-Jan-05 16:43 *r   86.9217  -0.1524

 2017-Jan-06 05:33  s  276.3520  -0.2938
 2017-Jan-06 17:18 *r   80.9867  -0.1497

 2017-Jan-07 06:41  s  282.1922  -0.2298
 2017-Jan-07 17:56 *r   75.4373  -0.1391

 2017-Jan-08 07:51  s  287.5367  -0.2801
 2017-Jan-08 18:38 *r   70.5979  -0.1903

 2017-Jan-09 09:01  s  291.7934  -0.3191
 2017-Jan-09 19:26 *r   67.0185  -0.2017

 2017-Jan-10 10:09  s  294.5198  -0.3551
 2017-Jan-10 20:21 *r   65.1594  -0.1334

 2017-Jan-11 11:12 As  295.3177  -0.3178
 2017-Jan-11 21:21 *r   65.0317  -0.1955

 2017-Jan-12 12:09 Cs  294.2818  -0.3413
 2017-Jan-12 22:26 Nr   66.8887  -0.1472

 2017-Jan-13 12:58 *s  291.4368  -0.2475
 2017-Jan-13 23:32  r   70.1981  -0.2020

 2017-Jan-14 13:41 *s  287.4164  -0.2429
 2017-Jan-15 00:38  r   74.7117  -0.1954

 2017-Jan-15 14:19 *s  282.6234  -0.2992
 2017-Jan-16 01:43  r   80.0403  -0.0727

 2017-Jan-16 14:53 *s  277.3731  -0.3515
 2017-Jan-17 02:45  r   85.5656  -0.0608

 2017-Jan-17 15:24 *s  271.9056  -0.3378
 2017-Jan-18 03:44  r   90.9798  -0.1864

 2017-Jan-18 15:53 *s  266.4076  -0.2183
 2017-Jan-19 04:43  r   96.4811  -0.0637

 2017-Jan-19 16:23 *s  261.3472  -0.2812
 2017-Jan-20 05:40  r  101.4983  -0.0675

 2017-Jan-20 16:53 *s  256.5543  -0.2123
 2017-Jan-21 06:36  r  105.9745  -0.1019

 2017-Jan-21 17:26 *s  252.4877  -0.3076
 2017-Jan-22 07:31  r  109.7249  -0.1837

 2017-Jan-22 18:01 *s  248.9957  -0.2693
 2017-Jan-23 08:26  r  112.7611  -0.1442

 2017-Jan-23 18:40 *s  246.4243  -0.2545
 2017-Jan-24 09:19  r  114.6616  -0.1926

 2017-Jan-24 19:24 *s  244.9978  -0.2951
 2017-Jan-25 10:11  r  115.5370  -0.0861

 2017-Jan-25 20:13 *s  244.8158  -0.3351
 2017-Jan-26 10:59 Ar  114.9231  -0.1291

 2017-Jan-26 21:06 *s  245.8368  -0.2536
 2017-Jan-27 11:44 Cr  113.0414  -0.1107

 2017-Jan-27 22:04 *s  248.3216  -0.2771
 2017-Jan-28 12:25 *r  109.8346  -0.1554

 2017-Jan-28 23:05 Ns  252.0023  -0.2676
 2017-Jan-29 13:03 *r  105.5793  -0.1714

 2017-Jan-30 00:08  s  256.6823  -0.2277
 2017-Jan-30 13:39 *r  100.5560  -0.1118

 2017-Jan-31 01:13  s  262.2256  -0.2735
 2017-Jan-31 14:13 *r   94.8856  -0.1167

 2017-Feb-01 02:19  s  268.2471  -0.3230
 2017-Feb-01 14:46 *r   88.8386  -0.2017

 2017-Feb-02 03:25  s  274.2954  -0.2452
 2017-Feb-02 15:21 *r   82.9920  -0.0903

 2017-Feb-03 04:33  s  280.3652  -0.3445
 2017-Feb-03 15:57 *r   77.3062  -0.1326

 2017-Feb-04 05:41  s  285.8127  -0.3541
 2017-Feb-04 16:37 *r   72.3810  -0.0814

 2017-Feb-05 06:48  s  290.2037  -0.2360
 2017-Feb-05 17:21 *r   68.3839  -0.1297

 2017-Feb-06 07:55  s  293.5204  -0.3230
 2017-Feb-06 18:11 *r   65.8361  -0.1311

 2017-Feb-07 08:58  s  295.0990  -0.3122
 2017-Feb-07 19:07 *r   64.9807  -0.1234

 2017-Feb-08 09:56  s  294.9056  -0.3161
 2017-Feb-08 20:08 *r   65.8944  -0.1321

 2017-Feb-09 10:48 As  293.0185  -0.3472
 2017-Feb-09 21:12 *r   68.4174  -0.1904

 2017-Feb-10 11:33 Cs  289.5601  -0.2731
 2017-Feb-10 22:18 *r   72.4101  -0.1442

 2017-Feb-11 12:13 *s  285.1035  -0.2680
 2017-Feb-11 23:23 Nr   77.2679  -0.1695

 2017-Feb-12 12:49 *s  280.0148  -0.3101
 2017-Feb-13 00:27  r   82.7544  -0.1169

 2017-Feb-13 13:21 *s  274.4442  -0.2064
 2017-Feb-14 01:29  r   88.4249  -0.0796

 2017-Feb-14 13:52 *s  268.9546  -0.2293
 2017-Feb-15 02:29  r   93.9921  -0.0718

 2017-Feb-15 14:22 *s  263.5973  -0.2097
 2017-Feb-16 03:27  r   99.1934  -0.1365

 2017-Feb-16 14:53 *s  258.7060  -0.2943
 2017-Feb-17 04:24  r  103.9609  -0.1681

 2017-Feb-17 15:25 *s  254.2853  -0.3303
 2017-Feb-18 05:20  r  108.1017  -0.1932

 2017-Feb-18 15:59 *s  250.4934  -0.3228
 2017-Feb-19 06:16  r  111.6177  -0.0661

 2017-Feb-19 16:36 *s  247.4988  -0.2819
 2017-Feb-20 07:09  r  113.9109  -0.1683

 2017-Feb-20 17:17 *s  245.4913  -0.2292
 2017-Feb-21 08:01  r  115.2221  -0.1452

 2017-Feb-21 18:03 *s  244.6883  -0.2136
 2017-Feb-22 08:50  r  115.2007  -0.1885

 2017-Feb-22 18:55 *s  245.3331  -0.3344
 2017-Feb-23 09:37  r  114.0159  -0.0881

 2017-Feb-23 19:50 *s  247.0448  -0.2087
 2017-Feb-24 10:20 Ar  111.4045  -0.0869

 2017-Feb-24 20:51 *s  250.3697  -0.3453
 2017-Feb-25 11:00 Nr  107.6093  -0.0673

 2017-Feb-25 21:54 *s  254.6839  -0.3152
 2017-Feb-26 11:37 *r  102.7428  -0.1049

 2017-Feb-26 22:59 Cs  259.9066  -0.2442
 2017-Feb-27 12:12 *r   97.0953  -0.1719

 2017-Feb-28 00:06 As  265.8579  -0.2396
 2017-Feb-28 12:47 *r   91.1288  -0.1109

 2017-Mar-01 01:14  s  272.1112  -0.2260
 2017-Mar-01 13:22 *r   85.0059  -0.0893

 2017-Mar-02 02:23  s  278.3473  -0.2559
 2017-Mar-02 13:58 *r   79.0524  -0.1361

 2017-Mar-03 03:32  s  284.0813  -0.2459
 2017-Mar-03 14:37 *r   73.7546  -0.1370

 2017-Mar-04 04:41  s  289.0351  -0.3081
 2017-Mar-04 15:20 *r   69.4514  -0.1250

 2017-Mar-05 05:48  s  292.7103  -0.3342
 2017-Mar-05 16:08 *r   66.4929  -0.0971

 2017-Mar-06 06:51  s  294.7416  -0.2752
 2017-Mar-06 17:01 *r   65.0791  -0.1115

 2017-Mar-07 07:50  s  295.2103  -0.3471
 2017-Mar-07 17:59 *r   65.3943  -0.1119

 2017-Mar-08 08:42  s  293.8217  -0.2736
 2017-Mar-08 19:00 *r   67.2523  -0.2052

 2017-Mar-09 09:29  s  291.1061  -0.3493
 2017-Mar-09 20:04 *r   70.6836  -0.1607

 2017-Mar-10 10:10 As  287.1206  -0.3481
 2017-Mar-10 21:08 *r   75.1276  -0.1760

 2017-Mar-11 10:46 Ns  282.2069  -0.2557
 2017-Mar-11 22:12 *r   80.3974  -0.0904

 2017-Mar-12 11:20 *s  276.9830  -0.3440
 2017-Mar-12 23:14 Cr   85.9240  -0.1147

 2017-Mar-13 11:51 *s  271.4095  -0.2885
 2017-Mar-14 00:15 Ar   91.5954  -0.0786

 2017-Mar-14 12:21 *s  265.8838  -0.2307
 2017-Mar-15 01:14  r   96.9882  -0.1433

 2017-Mar-15 12:52 *s  260.7792  -0.3253
 2017-Mar-16 02:12  r  102.0271  -0.1776

 2017-Mar-16 13:23 *s  255.9807  -0.2765
 2017-Mar-17 03:09  r  106.5123  -0.1910

 2017-Mar-17 13:56 *s  251.8307  -0.2514
 2017-Mar-18 04:05  r  110.2839  -0.1712

 2017-Mar-18 14:32 *s  248.5123  -0.2655
 2017-Mar-19 05:00  r  113.2218  -0.0801

 2017-Mar-19 15:11 *s  246.0574  -0.2021
 2017-Mar-20 05:52  r  114.9278  -0.1320

 2017-Mar-20 15:55 *s  244.8247  -0.2474
 2017-Mar-21 06:42  r  115.5182  -0.1141

 2017-Mar-21 16:43 *s  244.7153  -0.2045
 2017-Mar-22 07:29  r  114.8232  -0.1028

 2017-Mar-22 17:37 *s  246.1129  -0.3404
 2017-Mar-23 08:13  r  112.8571  -0.0681

 2017-Mar-23 18:34 *s  248.6011  -0.2844
 2017-Mar-24 08:53  r  109.4990  -0.1683

 2017-Mar-24 19:35 *s  252.3609  -0.2537
 2017-Mar-25 09:31 Ar  105.1198  -0.1842

 2017-Mar-25 20:40 *s  257.3504  -0.3499
 2017-Mar-26 10:08 Nr   99.9582  -0.0660

 2017-Mar-26 21:46 *s  262.9591  -0.2257
 2017-Mar-27 10:43 Cr   93.9759  -0.1001

 2017-Mar-27 22:55 *s  269.2786  -0.2486
 2017-Mar-28 11:18 *r   87.6412  -0.1465

 2017-Mar-29 00:06 Ns  275.8413  -0.3377
 2017-Mar-29 11:55 *r   81.4609  -0.0772

 2017-Mar-30 01:17  s  281.9828  -0.2812
 2017-Mar-30 12:34 *r   75.6651  -0.0809

 2017-Mar-31 02:28  s  287.3876  -0.2272
 2017-Mar-31 13:16 *r   70.6599  -0.1820

 2017-Apr-01 03:38  s  291.6815  -0.2488
 2017-Apr-01 14:04 *r   67.1685  -0.0896

 2017-Apr-02 04:45  s  294.4848  -0.3334
 2017-Apr-02 14:56 *r   65.1252  -0.1503

 2017-Apr-03 05:46  s  295.4163  -0.3258
 2017-Apr-03 15:53 *r   64.8889  -0.1710

 2017-Apr-04 06:40  s  294.5128  -0.2501
 2017-Apr-04 16:54 *r   66.4306  -0.1289

 2017-Apr-05 07:28  s  292.1544  -0.2647
 2017-Apr-05 17:57 *r   69.4560  -0.0784

 2017-Apr-06 08:10  s  288.5421  -0.2752
 2017-Apr-06 19:00 *r   73.5547  -0.0944

 2017-Apr-07 08:47  s  283.9914  -0.2580
 2017-Apr-07 20:02 *r   78.3805  -0.1803

$$EOE
*******************************************************************************
Column meaning: